start=new Date('2021-12-09T00:00:00.000Z').valueOf();
sats=[{"TLE_LINE2":"2 45542  53.0545 232.7839 0002276  74.1915 285.9325 15.06393487 91204","EPOCH":"2021-12-08T22:05:59.476992","PERIAPSIS":"545.657","BSTAR":"-0.00002300800000","MEAN_MOTION_DDOT":"0.0000000000000","RA_OF_ASC_NODE":"232.7839","COUNTRY_CODE":"US","CENTER_NAME":"EARTH","RCS_SIZE":"LARGE","NORAD_CAT_ID":"45542","TIME_SYSTEM":"UTC","SITE":"AFETR","REV_AT_EPOCH":"9120","SEMIMAJOR_AXIS":"6925.369","OBJECT_ID":"2020-025M","OBJECT_TYPE":"PAYLOAD","MEAN_MOTION_DOT":"-0.00000624","MEAN_ELEMENT_THEORY":"SGP4","TLE_LINE1":"1 45542U 20025M   21342.92082728 -.00000624  00000-0 -23008-4 0  9990","EPHEMERIS_TYPE":"0","ECCENTRICITY":"0.00022760","DECAY_DATE":null,"PERIOD":"95.593","CLASSIFICATION_TYPE":"U","ARG_OF_PERICENTER":"74.1915","MEAN_ANOMALY":"285.9325","MEAN_MOTION":"15.06393487","FILE":"3235972","REF_FRAME":"TEME","INCLINATION":"53.0545","ELEMENT_SET_NO":"999","LAUNCH_DATE":"2020-04-22","GP_ID":"191361590","APOAPSIS":"548.810","OBJECT_NAME":"STARLINK-1371"},{"ECCENTRICITY":"0.00022250","CLASSIFICATION_TYPE":"U","DECAY_DATE":null,"PERIOD":"95.593","TLE_LINE1":"1 45543U 20025N   21342.89133332 -.00000284  00000-0 -13650-6 0  9991","EPHEMERIS_TYPE":"0","MEAN_ELEMENT_THEORY":"SGP4","GP_ID":"191361840","OBJECT_NAME":"STARLINK-1372","APOAPSIS":"548.773","MEAN_MOTION":"15.06393996","MEAN_ANOMALY":"295.3187","ARG_OF_PERICENTER":"64.8033","ELEMENT_SET_NO":"999","LAUNCH_DATE":"2020-04-22","REF_FRAME":"TEME","FILE":"3235972","INCLINATION":"53.0530","CENTER_NAME":"EARTH","EPOCH":"2021-12-08T21:23:31.198848","PERIAPSIS":"545.691","TLE_LINE2":"2 45543  53.0530 232.9053 0002225  64.8033 295.3187 15.06393996 90294","RA_OF_ASC_NODE":"232.9053","COUNTRY_CODE":"US","BSTAR":"-0.00000013650000","MEAN_MOTION_DDOT":"0.0000000000000","OBJECT_ID":"2020-025N","SEMIMAJOR_AXIS":"6925.367","MEAN_MOTION_DOT":"-0.00000284","OBJECT_TYPE":"PAYLOAD","NORAD_CAT_ID":"45543","TIME_SYSTEM":"UTC","RCS_SIZE":"LARGE","REV_AT_EPOCH":"9029","SITE":"AFETR"},{"SITE":"AFETR","REV_AT_EPOCH":"9120","RCS_SIZE":"LARGE","NORAD_CAT_ID":"45544","TIME_SYSTEM":"UTC","OBJECT_TYPE":"PAYLOAD","MEAN_MOTION_DOT":"-0.00000326","SEMIMAJOR_AXIS":"6925.375","OBJECT_ID":"2020-025P","BSTAR":"-0.00000296880000","MEAN_MOTION_DDOT":"0.0000000000000","RA_OF_ASC_NODE":"232.8379","COUNTRY_CODE":"US","TLE_LINE2":"2 45544  53.0542 232.8379 0002069  74.9613 285.1604 15.06391481 91200","EPOCH":"2021-12-08T21:50:03.614784","PERIAPSIS":"545.807","CENTER_NAME":"EARTH","FILE":"3235972","INCLINATION":"53.0542","REF_FRAME":"TEME","ELEMENT_SET_NO":"999","LAUNCH_DATE":"2020-04-22","MEAN_ANOMALY":"285.1604","ARG_OF_PERICENTER":"74.9613","MEAN_MOTION":"15.06391481","APOAPSIS":"548.673","OBJECT_NAME":"STARLINK-1373","GP_ID":"191362592","MEAN_ELEMENT_THEORY":"SGP4","EPHEMERIS_TYPE":"0","TLE_LINE1":"1 45544U 20025P   21342.90976406 -.00000326  00000-0 -29688-5 0  9995","DECAY_DATE":null,"PERIOD":"95.593","CLASSIFICATION_TYPE":"U","ECCENTRICITY":"0.00020690"},{"MEAN_ELEMENT_THEORY":"SGP4","EPHEMERIS_TYPE":"0","TLE_LINE1":"1 45545U 20025Q   21342.92819355  .00001220  00000-0  10078-3 0  9990","DECAY_DATE":null,"PERIOD":"95.592","CLASSIFICATION_TYPE":"U","ECCENTRICITY":"0.00023070","INCLINATION":"53.0532","FILE":"3235972","REF_FRAME":"TEME","ELEMENT_SET_NO":"999","LAUNCH_DATE":"2020-04-22","MEAN_ANOMALY":"294.1110","ARG_OF_PERICENTER":"66.0121","MEAN_MOTION":"15.06398225","APOAPSIS":"548.817","OBJECT_NAME":"STARLINK-1374","GP_ID":"191363343","BSTAR":"0.00010078000000","MEAN_MOTION_DDOT":"0.0000000000000","RA_OF_ASC_NODE":"232.7560","COUNTRY_CODE":"US","TLE_LINE2":"2 45545  53.0532 232.7560 0002307  66.0121 294.1110 15.06398225 91184","EPOCH":"2021-12-08T22:16:35.922720","PERIAPSIS":"545.621","CENTER_NAME":"EARTH","SITE":"AFETR","REV_AT_EPOCH":"9118","RCS_SIZE":"LARGE","NORAD_CAT_ID":"45545","TIME_SYSTEM":"UTC","MEAN_MOTION_DOT":"0.00001220","OBJECT_TYPE":"PAYLOAD","SEMIMAJOR_AXIS":"6925.354","OBJECT_ID":"2020-025Q"},{"APOAPSIS":"548.829","OBJECT_NAME":"STARLINK-1375","GP_ID":"191362091","REF_FRAME":"TEME","FILE":"3235972","INCLINATION":"53.0533","LAUNCH_DATE":"2020-04-22","ELEMENT_SET_NO":"999","ARG_OF_PERICENTER":"68.2638","MEAN_ANOMALY":"291.8595","MEAN_MOTION":"15.06391357","PERIOD":"95.593","DECAY_DATE":null,"CLASSIFICATION_TYPE":"U","ECCENTRICITY":"0.00022940","MEAN_ELEMENT_THEORY":"SGP4","TLE_LINE1":"1 45546U 20025R   21342.93925605 -.00000981  00000-0 -46940-4 0  9991","EPHEMERIS_TYPE":"0","MEAN_MOTION_DOT":"-0.00000981","OBJECT_TYPE":"PAYLOAD","SEMIMAJOR_AXIS":"6925.375","OBJECT_ID":"2020-025R","SITE":"AFETR","REV_AT_EPOCH":"9120","RCS_SIZE":"LARGE","NORAD_CAT_ID":"45546","TIME_SYSTEM":"UTC","CENTER_NAME":"EARTH","MEAN_MOTION_DDOT":"0.0000000000000","BSTAR":"-0.00004694000000","COUNTRY_CODE":"US","RA_OF_ASC_NODE":"232.6952","TLE_LINE2":"2 45546  53.0533 232.6952 0002294  68.2638 291.8595 15.06391357 91205","PERIAPSIS":"545.651","EPOCH":"2021-12-08T22:32:31.722720"},{"TLE_LINE2":"2 45547  53.0532 232.7091 0002324  63.6772 296.4456 15.06393421 91214","PERIAPSIS":"545.624","EPOCH":"2021-12-08T22:27:13.098528","MEAN_MOTION_DDOT":"0.0000000000000","BSTAR":"0.00010561000000","COUNTRY_CODE":"US","RA_OF_ASC_NODE":"232.7091","CENTER_NAME":"EARTH","RCS_SIZE":"LARGE","NORAD_CAT_ID":"45547","TIME_SYSTEM":"UTC","SITE":"AFETR","REV_AT_EPOCH":"9121","SEMIMAJOR_AXIS":"6925.369","OBJECT_ID":"2020-025S","OBJECT_TYPE":"PAYLOAD","MEAN_MOTION_DOT":"0.00001291","MEAN_ELEMENT_THEORY":"SGP4","EPHEMERIS_TYPE":"0","TLE_LINE1":"1 45547U 20025S   21342.93556827  .00001291  00000-0  10561-3 0  9990","ECCENTRICITY":"0.00023240","DECAY_DATE":null,"PERIOD":"95.593","CLASSIFICATION_TYPE":"U","ARG_OF_PERICENTER":"63.6772","MEAN_ANOMALY":"296.4456","MEAN_MOTION":"15.06393421","FILE":"3235972","INCLINATION":"53.0532","REF_FRAME":"TEME","LAUNCH_DATE":"2020-04-22","ELEMENT_SET_NO":"999","GP_ID":"191362341","APOAPSIS":"548.843","OBJECT_NAME":"STARLINK-1377"},{"NORAD_CAT_ID":"45548","TIME_SYSTEM":"UTC","RCS_SIZE":"LARGE","REV_AT_EPOCH":"9119","SITE":"AFETR","OBJECT_ID":"2020-025T","SEMIMAJOR_AXIS":"6925.376","MEAN_MOTION_DOT":"-0.00000781","OBJECT_TYPE":"PAYLOAD","PERIAPSIS":"545.823","EPOCH":"2021-12-08T21:28:50.035584","TLE_LINE2":"2 45548  53.0544 232.9024 0002048  69.6191 290.5018 15.06391098 91194","COUNTRY_CODE":"US","RA_OF_ASC_NODE":"232.9024","MEAN_MOTION_DDOT":"0.0000000000000","BSTAR":"-0.00003355000000","CENTER_NAME":"EARTH","MEAN_MOTION":"15.06391098","ARG_OF_PERICENTER":"69.6191","MEAN_ANOMALY":"290.5018","LAUNCH_DATE":"2020-04-22","ELEMENT_SET_NO":"999","INCLINATION":"53.0544","FILE":"3235972","REF_FRAME":"TEME","GP_ID":"191363093","OBJECT_NAME":"STARLINK-1378","APOAPSIS":"548.659","TLE_LINE1":"1 45548U 20025T   21342.89502356 -.00000781  00000-0 -33550-4 0  9993","EPHEMERIS_TYPE":"0","MEAN_ELEMENT_THEORY":"SGP4","ECCENTRICITY":"0.00020480","CLASSIFICATION_TYPE":"U","DECAY_DATE":null,"PERIOD":"95.593"},{"EPOCH":"2021-12-08T21:50:33.370080","PERIAPSIS":"412.866","TLE_LINE2":"2 45549  53.0490 227.3157 0000984  24.7151 335.3905 15.51093495 91277","RA_OF_ASC_NODE":"227.3157","COUNTRY_CODE":"US","BSTAR":"0.01824100000000","MEAN_MOTION_DDOT":"0.0000000000000","CENTER_NAME":"EARTH","TIME_SYSTEM":"UTC","NORAD_CAT_ID":"45549","RCS_SIZE":"LARGE","REV_AT_EPOCH":"9127","SITE":"AFETR","OBJECT_ID":"2020-025U","SEMIMAJOR_AXIS":"6791.669","OBJECT_TYPE":"PAYLOAD","MEAN_MOTION_DOT":"0.01186698","TLE_LINE1":"1 45549U 20025U   21342.91010845  .01186698  00000-0  18241-1 0  9992","EPHEMERIS_TYPE":"0","MEAN_ELEMENT_THEORY":"SGP4","ECCENTRICITY":"0.00009840","CLASSIFICATION_TYPE":"U","PERIOD":"92.838","DECAY_DATE":null,"MEAN_MOTION":"15.51093495","ARG_OF_PERICENTER":"24.7151","MEAN_ANOMALY":"335.3905","ELEMENT_SET_NO":"999","LAUNCH_DATE":"2020-04-22","INCLINATION":"53.0490","FILE":"3235972","REF_FRAME":"TEME","GP_ID":"191362843","OBJECT_NAME":"STARLINK-1379","APOAPSIS":"414.202"},{"OBJECT_NAME":"STARLINK-1390","APOAPSIS":"548.869","GP_ID":"191361591","ELEMENT_SET_NO":"999","LAUNCH_DATE":"2020-04-22","FILE":"3235972","REF_FRAME":"TEME","INCLINATION":"53.0547","MEAN_MOTION":"15.06388236","ARG_OF_PERICENTER":"70.4192","MEAN_ANOMALY":"289.7050","CLASSIFICATION_TYPE":"U","DECAY_DATE":null,"PERIOD":"95.593","ECCENTRICITY":"0.00023380","TLE_LINE1":"1 45550U 20025V   21342.91250957 -.00000728  00000-0 -29961-4 0  9998","EPHEMERIS_TYPE":"0","MEAN_ELEMENT_THEORY":"SGP4","MEAN_MOTION_DOT":"-0.00000728","OBJECT_TYPE":"PAYLOAD","OBJECT_ID":"2020-025V","SEMIMAJOR_AXIS":"6925.385","REV_AT_EPOCH":"9119","SITE":"AFETR","NORAD_CAT_ID":"45550","TIME_SYSTEM":"UTC","RCS_SIZE":"LARGE","CENTER_NAME":"EARTH","RA_OF_ASC_NODE":"232.8261","COUNTRY_CODE":"US","BSTAR":"-0.00002996100000","MEAN_MOTION_DDOT":"0.0000000000000","EPOCH":"2021-12-08T21:54:00.826848","PERIAPSIS":"545.630","TLE_LINE2":"2 45550  53.0547 232.8261 0002338  70.4192 289.7050 15.06388236 91191"},{"CENTER_NAME":"EARTH","TLE_LINE2":"2 45551  53.0518 212.8136 0002251  73.8794 286.2443 15.06390674 91487","EPOCH":"2021-12-08T21:58:02.780544","PERIAPSIS":"545.683","BSTAR":"0.00017021000000","MEAN_MOTION_DDOT":"0.0000000000000","RA_OF_ASC_NODE":"212.8136","COUNTRY_CODE":"US","SEMIMAJOR_AXIS":"6925.377","OBJECT_ID":"2020-025W","MEAN_MOTION_DOT":"0.00002254","OBJECT_TYPE":"PAYLOAD","RCS_SIZE":"LARGE","NORAD_CAT_ID":"45551","TIME_SYSTEM":"UTC","SITE":"AFETR","REV_AT_EPOCH":"9148","ECCENTRICITY":"0.00022510","PERIOD":"95.593","DECAY_DATE":null,"CLASSIFICATION_TYPE":"U","MEAN_ELEMENT_THEORY":"SGP4","TLE_LINE1":"1 45551U 20025W   21342.91530996  .00002254  00000-0  17021-3 0  9990","EPHEMERIS_TYPE":"0","GP_ID":"191361841","APOAPSIS":"548.801","OBJECT_NAME":"STARLINK-1294","MEAN_ANOMALY":"286.2443","ARG_OF_PERICENTER":"73.8794","MEAN_MOTION":"15.06390674","FILE":"3235972","INCLINATION":"53.0518","REF_FRAME":"TEME","ELEMENT_SET_NO":"999","LAUNCH_DATE":"2020-04-22"}];
